satname,norad_id,inclination_deg,eccentricity,mean_motion_rev_per_day,perigee_km,apogee_km,l1,l2
STARLINK-1360,45588,53.0411,0.0003535,15.84327154,315.85281564544675,320.58714002877696,1 45588U 20025BK  25334.91670139  .00169551  00000+0  71928-3 0  9998,2 45588  53.0411  48.1870 0003535 347.7069 166.6505 15.84327154  5998
STARLINK-1364,45589,53.0544,0.0001458,15.0639521,546.2165206770978,548.2359565974848,1 45589U 20025BL  25334.76605101  .00000143  00000+0  28532-4 0  9994,2 45589  53.0544 160.7061 0001458  89.1854 270.9302 15.06395210310591
STARLINK-1365,45590,53.0531,0.0001761,15.06393817,546.0109507894203,548.4500652257402,1 45590U 20025BM  25334.84806338 -.00000115  00000+0  11190-4 0  9992,2 45590  53.0531 190.3338 0001761  96.7960 263.3230 15.06393817310209
STARLINK-1443,45660,53.0518,0.0001569,15.06404594,546.1108930461141,548.2840630053188,1 45660U 20035D   25334.76697425  .00000618  00000+0  60360-4 0  9997,2 45660  53.0518 150.7012 0001569  90.1311 269.9858 15.06404594303828
STARLINK-1446,45663,53.0248,2.29e-05,15.36482721,456.36343439735265,456.6764616855735,1 45663U 20035G   25334.79508116  .00030267  00000+0  84527-3 0  9994,2 45663  53.0248 107.2836 0000229 239.8362 120.2617 15.36482721304433
STARLINK-1448,45665,53.0543,0.0001601,15.06395884,546.1154225904056,548.332923237972,1 45665U 20035J   25334.77065355  .00000260  00000+0  36364-4 0  9994,2 45665  53.0543 150.6810 0001601  92.9420 267.1752 15.06395884303817
STARLINK-1451,45668,53.0513,0.0001177,15.0641134,546.3616932549876,547.9919121241419,1 45668U 20035M   25334.77436883  .00003965  00000+0  28483-3 0  9992,2 45668  53.0513 150.9842 0001177  88.0809 272.0314 15.06411340303826
STARLINK-1452,45669,53.0379,0.0010325,15.29900182,469.03340765809753,483.18742857650886,1 45669U 20035N   25334.71108118  .00085468  00000+0  28872-2 0  9993,2 45669  53.0379 127.5840 0010325 122.0893 238.1110 15.29900182304147
STARLINK-1453,45670,53.0541,0.000124,15.12619849,527.3575808268452,529.0703558669957,1 45670U 20035P   25334.67176671  .00001860  00000+0  12217-3 0  9990,2 45670  53.0541 120.6416 0001240  85.9668 274.1466 15.12619849304127
STARLINK-1454,45671,53.0529,0.0001396,15.06391951,546.2694449713536,548.2030091763527,1 45671U 20035Q   25334.79647571  .00005440  00000+0  38387-3 0  9990,2 45671  53.0529 150.5702 0001396  96.2251 263.8897 15.06391951303811
STARLINK-1456,45673,53.0526,0.0001031,15.0639591,546.5100884988597,547.9380979562839,1 45673U 20035S   25334.74486057  .00001730  00000+0  13499-3 0  9992,2 45673  53.0526 150.8014 0001031 110.2861 249.8238 15.06395910303822
STARLINK-1457,45674,53.0527,0.0001387,15.45029172,430.3478894911723,432.2368251948992,1 45674U 20035T   25334.91670139  .00189885  00000+0  38722-2 0  9991,2 45674  53.0527 144.3595 0001387 230.4328 322.2328 15.45029172  5803
STARLINK-1458,45675,53.0537,0.0001414,15.06399836,546.2328162175381,548.1913049318682,1 45675U 20035U   25334.74116885 -.00000297  00000+0 -10301-5 0  9993,2 45675  53.0537 150.8136 0001414  89.7520 270.3631 15.06399836303780
STARLINK-1460,45676,53.0533,0.0001338,15.06398072,546.2908545592145,548.1440794145801,1 45676U 20035V   25334.77802402  .00000241  00000+0  35051-4 0  9999,2 45676  53.0533 150.6481 0001338  92.0861 268.0282 15.06398072303785
STARLINK-1392,45677,53.0551,0.0001563,15.06392603,546.1517932476263,548.3166642937404,1 45677U 20035W   25334.72273760 -.00000428  00000+0 -98086-5 0  9991,2 45677  53.0551 150.9014 0001563  94.7577 265.3590 15.06392603303814
STARLINK-1394,45679,53.0542,0.0001225,15.06394128,546.3811974280479,548.0779122339818,1 45679U 20035Y   25334.78631579  .00000686  00000+0  64953-4 0  9994,2 45679  53.0542 140.6129 0001225  99.0748 261.0380 15.06394128303962
STARLINK-1402,45685,53.0528,0.0003355,15.3005676,473.34334848565595,477.94223472582416,1 45685U 20035AE  25334.81453318  .00075133  00000+0  25341-2 0  9993,2 45685  53.0528 128.5795 0003355 199.3406 160.7466 15.30056760304143
STARLINK-1404,45686,53.0543,0.0001341,15.0639658,546.2933491183057,548.1507304127699,1 45686U 20035AF  25334.74577353  .00000458  00000+0  49610-4 0  9997,2 45686  53.0543 140.7980 0001341  92.4679 267.6463 15.06396580303964
STARLINK-1413,45689,53.0549,0.0001479,15.06390973,546.2149613877018,548.2634876749171,1 45689U 20035AJ  25334.76420400 -.00000064  00000+0  14579-4 0  9992,2 45689  53.0549 140.7115 0001479  94.5707 265.5451 15.06390973303874
STARLINK-1417,45693,53.0523,0.000106,15.06922594,544.876428273019,546.3442627102631,1 45693U 20035AN  25334.82445812  .00022068  00000+0  14749-2 0  9992,2 45693  53.0523 140.4185 0001060 130.6656 229.4426 15.06922594303967
STARLINK-1420,45695,53.0549,0.0001208,15.06400116,546.374620352155,548.0477844778588,1 45695U 20035AQ  25334.69505809 -.00002572  00000+0 -15385-3 0  9990,2 45695  53.0549 121.0123 0001208  83.0905 277.0222 15.06400116304231
STARLINK-1422,45696,53.0539,0.0001421,15.06392057,546.2518067068431,548.2199976856473,1 45696U 20035AR  25334.77157758  .00000325  00000+0  40735-4 0  9996,2 45696  53.0539 140.6808 0001421  92.7898 267.3254 15.06392057303952
STARLINK-1351,45697,53.0546,0.0001267,15.06395577,546.3476704495943,548.1025572092394,1 45697U 20035AS  25334.81396154  .00000297  00000+0  38824-4 0  9991,2 45697  53.0546 120.4910 0001267  86.9675 273.1459 15.06395577304253
STARLINK-1398,45699,53.0489,0.0002003,15.56322169,396.95464573912886,399.6692911958962,1 45699U 20035AU  25334.54407003  .00050597  00000+0  70829-3 0  9997,2 45699  53.0489  71.1492 0002003 221.5809 138.5049 15.56322169304928
STARLINK-1400,45700,53.0546,0.0001278,15.06394247,546.3441283117118,548.1142519099049,1 45700U 20035AV  25334.72181598  .00000181  00000+0  31072-4 0  9990,2 45700  53.0546 120.9026 0001278  92.5726 267.5410 15.06394247304238
STARLINK-1403,45701,53.0531,0.0001188,15.06382212,546.4433382473635,548.0888140182533,1 45701U 20035AW  25334.68495795  .00003121  00000+0  22840-3 0  9992,2 45701  53.0531 121.0688 0001188  89.8755 270.2370 15.06382212304224
STARLINK-1407,45703,53.0413,0.0009837,15.44481578,426.2017598095081,439.60179750263615,1 45703U 20035AY  25334.66760519  .00023801  00000+0  51237-3 0  9990,2 45703  53.0413  71.8739 0009837 151.6389 208.5154 15.44481578304922
STARLINK-1411,45706,53.0513,0.000126,15.44640784,431.5756298914066,433.2918937233826,1 45706U 20035BB  25334.61764058  .00049873  00000+0  10561-2 0  9991,2 45706  53.0513  99.3491 0001260 328.3420  31.7510 15.44640784304521
STARLINK-1423,45710,53.0534,0.0001286,15.06393387,546.3412234739653,548.1224283359888,1 45710U 20035BF  25334.84344919  .00000010  00000+0  19595-4 0  9999,2 45710  53.0534 120.3570 0001286  91.7849 268.3287 15.06393387304257
STARLINK-1433,45711,53.0546,0.000129,15.06397356,546.3262904199992,548.1130324386477,1 45711U 20035BG  25334.69232579  .00000632  00000+0  61322-4 0  9996,2 45711  53.0546 121.0338 0001290  88.5317 271.5819 15.06397356304224
STARLINK-1434,45712,53.0466,0.0005431,15.17466698,509.75717400757276,517.2428701409499,1 45712U 20035BH  25334.71922738  .00009001  00000+0  45895-3 0  9998,2 45712  53.0466 114.9427 0005431 158.2420 201.8805 15.17466698304327
STARLINK-1465,45731,53.0559,0.0001625,15.06412308,546.0484729369518,548.2991989586353,1 45731U 20038B   25334.39375634  .00003049  00000+0  22343-3 0  9992,2 45731  53.0559 322.3745 0001625  90.7151 269.4024 15.06412308301227
STARLINK-1471,45735,53.0504,0.0001711,15.42453311,437.7049174002577,440.03769764309163,1 45735U 20038F   25334.17966097  .00024370  00000+0  56211-3 0  9992,2 45735  53.0504 256.2144 0001711  85.8620 274.2580 15.42453311302143
STARLINK-1474,45738,53.0343,0.0003669,15.72908538,348.1205034812483,353.05804282048484,1 45738U 20038J   25334.64037589  .00093195  00000+0  66907-3 0  9996,2 45738  53.0343 205.1629 0003669 103.1324 257.0103 15.72908538302898
STARLINK-1475,45739,53.0395,0.0001777,15.99324609,275.10898328459007,277.47396716468484,1 45739U 20038K   25334.91670139  .00584097  16042-3  11627-2 0  9992,2 45739  53.0395 166.4456 0001777 230.1794 351.0005 15.99324609  6069
STARLINK-1480,45741,53.0541,0.0001369,15.06405983,546.2451432584285,548.1412986729292,1 45741U 20038M   25334.70706638  .00000915  00000+0  80327-4 0  9996,2 45741  53.0541 320.9662 0001369  88.8285 271.2861 15.06405983301289
STARLINK-1500,45744,53.0387,0.0001766,15.2914762,477.14823115632134,479.5699455747317,1 45744U 20038Q   25334.31753577  .00026228  00000+0  92383-3 0  9999,2 45744  53.0387 296.8675 0001766   7.1529 352.9494 15.29147620301589
STARLINK-1504,45746,53.0279,0.0003238,15.43268684,434.2633870528616,438.67652651807657,1 45746U 20038S   25334.77832002  .00035374  00000+0  78863-3 0  9991,2 45746  53.0279 256.3964 0003238  54.8474 305.2834 15.43268684302183
STARLINK-1506,45747,53.0666,0.0002644,15.22566944,496.2830828943288,499.91923763347677,1 45747U 20038T   25334.33516664  .00028892  00000+0  12378-2 0  9992,2 45747  53.0666 300.7289 0002644   2.8085 357.2926 15.22566944301533
STARLINK-1464,45751,53.0565,0.0001246,15.06394958,546.364110629429,548.089911340966,1 45751U 20038X   25334.64256839 -.00000080  00000+0  13534-4 0  9993,2 45751  53.0565 301.2579 0001246  84.5633 275.5498 15.06394958301551
STARLINK-1477,45754,53.0527,0.0005152,15.08411168,537.4896999134653,544.619234801431,1 45754U 20038AA  25334.63390480  .00030316  00000+0  19366-2 0  9997,2 45754  53.0527 301.0485 0005152  62.8822 297.2693 15.08411168301558
STARLINK-1478,45755,53.054,0.0001524,15.06411236,546.1217035584987,548.2325393027113,1 45755U 20038AB  25334.60938537  .00001148  00000+0  95925-4 0  9994,2 45755  53.0540 301.4023 0001524  91.9474 268.1689 15.06411236301535
STARLINK-1484,45756,53.0137,0.0003101,15.67208805,364.80209654454757,368.98536460364994,1 45756U 20038AC  25334.61588463  .00083571  00000+0  76161-3 0  9995,2 45756  53.0137 194.5240 0003101 124.8848 235.2458 15.67208805303033
